sat06392
1 06392U 73015A   20046.64805153  .00000164  00000-0  89791-4 0  9999
2 06392  81.2449  13.3433 0025126 260.9352  98.8974 14.07603112407180
